STARLINK-31533          
1 59505U 24071X   26068.12628725 -.00002636  00000+0 -86332-4 0  9997
2 59505  43.0048 343.4260 0000480 318.9202  41.1613 15.27566900108112
FLOCK 4G-29             
1 62642U 25009AK  26068.81464037  .00011147  00000+0  41831-3 0  9994
2 62642  97.4058 151.3683 0001366 288.0502  72.0588 15.27382318 63721
